[{"OBJECT_NAME":"ONEWEB-0151","OBJECT_ID":"2021-025AA","EPOCH":"2025-09-25T06:41:56.671296","MEAN_MOTION":13.13463563,"ECCENTRICITY":0.00017722,"INCLINATION":87.9051,"RA_OF_ASC_NODE":12.8481,"ARG_OF_PERICENTER":110.8263,"MEAN_ANOMALY":249.3056,"EPHEMERIS_TYPE":0,"CLASSIFICATION_TYPE":"U","NORAD_CAT_ID":48066,"ELEMENT_SET_NO":999,"REV_AT_EPOCH":21881,"BSTAR":0.0058160603,"MEAN_MOTION_DOT":2.137e-5,"MEAN_MOTION_DDOT":0},{"OBJECT_NAME":"ONEWEB-0170","OBJECT_ID":"2021-025AB","EPOCH":"2025-09-25T06:54:08.912160","MEAN_MOTION":13.13471391,"ECCENTRICITY":0.00012771,"INCLINATION":87.9052,"RA_OF_ASC_NODE":12.8532,"ARG_OF_PERICENTER":104.5186,"MEAN_ANOMALY":255.6085,"EPHEMERIS_TYPE":0,"CLASSIFICATION_TYPE":"U","NORAD_CAT_ID":48067,"ELEMENT_SET_NO":999,"REV_AT_EPOCH":21877,"BSTAR":0.0015705758,"MEAN_MOTION_DOT":5.86e-6,"MEAN_MOTION_DDOT":0},{"OBJECT_NAME":"ONEWEB-0168","OBJECT_ID":"2021-025AC","EPOCH":"2025-09-24T19:34:01.551072","MEAN_MOTION":13.13468846,"ECCENTRICITY":0.00019111,"INCLINATION":87.9053,"RA_OF_ASC_NODE":12.9283,"ARG_OF_PERICENTER":103.7685,"MEAN_ANOMALY":256.3657,"EPHEMERIS_TYPE":0,"CLASSIFICATION_TYPE":"U","NORAD_CAT_ID":48068,"ELEMENT_SET_NO":999,"REV_AT_EPOCH":21872,"BSTAR":0.00081836422,"MEAN_MOTION_DOT":3.12e-6,"MEAN_MOTION_DDOT":0},{"OBJECT_NAME":"ONEWEB-0173","OBJECT_ID":"2021-025AD","EPOCH":"2025-09-25T06:19:59.575008","MEAN_MOTION":13.13472053,"ECCENTRICITY":0.00019697,"INCLINATION":87.9053,"RA_OF_ASC_NODE":12.8473,"ARG_OF_PERICENTER":113.1629,"MEAN_ANOMALY":246.9707,"EPHEMERIS_TYPE":0,"CLASSIFICATION_TYPE":"U","NORAD_CAT_ID":48069,"ELEMENT_SET_NO":999,"REV_AT_EPOCH":21902,"BSTAR":-4.05156e-7,"MEAN_MOTION_DOT":1.3e-7,"MEAN_MOTION_DDOT":0},{"OBJECT_NAME":"ONEWEB-0171","OBJECT_ID":"2021-025AE","EPOCH":"2025-09-25T05:23:56.158656","MEAN_MOTION":13.13471927,"ECCENTRICITY":0.00016814,"INCLINATION":87.9043,"RA_OF_ASC_NODE":12.8899,"ARG_OF_PERICENTER":104.4721,"MEAN_ANOMALY":255.6595,"EPHEMERIS_TYPE":0,"CLASSIFICATION_TYPE":"U","NORAD_CAT_ID":48070,"ELEMENT_SET_NO":999,"REV_AT_EPOCH":21883,"BSTAR":0.00028401246,"MEAN_MOTION_DOT":1.16e-6,"MEAN_MOTION_DDOT":0},{"OBJECT_NAME":"ONEWEB-0172","OBJECT_ID":"2021-025AF","EPOCH":"2025-09-24T14:17:08.003328","MEAN_MOTION":13.13468168,"ECCENTRICITY":0.0001737,"INCLINATION":87.9054,"RA_OF_ASC_NODE":12.9843,"ARG_OF_PERICENTER":106.1565,"MEAN_ANOMALY":253.9756,"EPHEMERIS_TYPE":0,"CLASSIFICATION_TYPE":"U","NORAD_CAT_ID":48071,"ELEMENT_SET_NO":999,"REV_AT_EPOCH":21964,"BSTAR":0.00053591204,"MEAN_MOTION_DOT":2.08e-6,"MEAN_MOTION_DDOT":0},{"OBJECT_NAME":"ONEWEB-0174","OBJECT_ID":"2021-025AG","EPOCH":"2025-09-25T06:17:33.558144","MEAN_MOTION":13.13468803,"ECCENTRICITY":0.00019331,"INCLINATION":87.9047,"RA_OF_ASC_NODE":12.8634,"ARG_OF_PERICENTER":99.8993,"MEAN_ANOMALY":260.2354,"EPHEMERIS_TYPE":0,"CLASSIFICATION_TYPE":"U","NORAD_CAT_ID":48072,"ELEMENT_SET_NO":999,"REV_AT_EPOCH":21905,"BSTAR":-4.201802e-5,"MEAN_MOTION_DOT":-3.0e-8,"MEAN_MOTION_DDOT":0},{"OBJECT_NAME":"ONEWEB-0175","OBJECT_ID":"2021-025AH","EPOCH":"2025-09-25T07:01:26.509152","MEAN_MOTION":13.13471892,"ECCENTRICITY":0.00014827,"INCLINATION":87.9049,"RA_OF_ASC_NODE":12.8224,"ARG_OF_PERICENTER":109.4272,"MEAN_ANOMALY":250.7017,"EPHEMERIS_TYPE":0,"CLASSIFICATION_TYPE":"U","NORAD_CAT_ID":48073,"ELEMENT_SET_NO":999,"REV_AT_EPOCH":21871,"BSTAR":0.00067055174,"MEAN_MOTION_DOT":2.58e-6,"MEAN_MOTION_DDOT":0},{"OBJECT_NAME":"ONEWEB-0177","OBJECT_ID":"2021-025AJ","EPOCH":"2025-09-25T05:28:48.592416","MEAN_MOTION":13.13468487,"ECCENTRICITY":0.00019165,"INCLINATION":87.9054,"RA_OF_ASC_NODE":12.8525,"ARG_OF_PERICENTER":103.3058,"MEAN_ANOMALY":256.8285,"EPHEMERIS_TYPE":0,"CLASSIFICATION_TYPE":"U","NORAD_CAT_ID":48074,"ELEMENT_SET_NO":999,"REV_AT_EPOCH":21889,"BSTAR":9.8624483e-5,"MEAN_MOTION_DOT":4.9e-7,"MEAN_MOTION_DDOT":0},{"OBJECT_NAME":"ONEWEB-0178","OBJECT_ID":"2021-025AK","EPOCH":"2025-09-24T18:57:38.262816","MEAN_MOTION":13.1346829,"ECCENTRICITY":0.000178,"INCLINATION":87.9051,"RA_OF_ASC_NODE":12.9854,"ARG_OF_PERICENTER":110.5286,"MEAN_ANOMALY":249.6035,"EPHEMERIS_TYPE":0,"CLASSIFICATION_TYPE":"U","NORAD_CAT_ID":48075,"ELEMENT_SET_NO":999,"REV_AT_EPOCH":21888,"BSTAR":-0.00075751806,"MEAN_MOTION_DOT":-2.64e-6,"MEAN_MOTION_DDOT":0},{"OBJECT_NAME":"ONEWEB-0108","OBJECT_ID":"2021-025AL","EPOCH":"2025-09-25T06:46:49.285632","MEAN_MOTION":13.13471902,"ECCENTRICITY":0.00017616,"INCLINATION":87.905,"RA_OF_ASC_NODE":12.8335,"ARG_OF_PERICENTER":92.7321,"MEAN_ANOMALY":267.4009,"EPHEMERIS_TYPE":0,"CLASSIFICATION_TYPE":"U","NORAD_CAT_ID":48076,"ELEMENT_SET_NO":999,"REV_AT_EPOCH":21887,"BSTAR":0.00094162111,"MEAN_MOTION_DOT":3.57e-6,"MEAN_MOTION_DDOT":0},{"OBJECT_NAME":"ONEWEB-0169","OBJECT_ID":"2021-025AM","EPOCH":"2025-09-25T05:43:25.821120","MEAN_MOTION":13.13468596,"ECCENTRICITY":0.00017741,"INCLINATION":87.905,"RA_OF_ASC_NODE":12.8651,"ARG_OF_PERICENTER":93.433,"MEAN_ANOMALY":266.7003,"EPHEMERIS_TYPE":0,"CLASSIFICATION_TYPE":"U","NORAD_CAT_ID":48077,"ELEMENT_SET_NO":999,"REV_AT_EPOCH":21752,"BSTAR":-0.00057290485,"MEAN_MOTION_DOT":-1.96e-6,"MEAN_MOTION_DDOT":0},{"OBJECT_NAME":"ONEWEB-0176","OBJECT_ID":"2021-031A","EPOCH":"2025-09-25T06:56:18.236544","MEAN_MOTION":13.14502075,"ECCENTRICITY":0.00018004,"INCLINATION":87.9072,"RA_OF_ASC_NODE":342.4523,"ARG_OF_PERICENTER":104.4036,"MEAN_ANOMALY":255.7293,"EPHEMERIS_TYPE":0,"CLASSIFICATION_TYPE":"U","NORAD_CAT_ID":48210,"ELEMENT_SET_NO":999,"REV_AT_EPOCH":21351,"BSTAR":0.00057394959,"MEAN_MOTION_DOT":2.26e-6,"MEAN_MOTION_DDOT":0},{"OBJECT_NAME":"ONEWEB-0184","OBJECT_ID":"2021-031B","EPOCH":"2025-09-25T06:17:29.164704","MEAN_MOTION":13.14502872,"ECCENTRICITY":0.00015596,"INCLINATION":87.9083,"RA_OF_ASC_NODE":342.4306,"ARG_OF_PERICENTER":128.57,"MEAN_ANOMALY":231.5569,"EPHEMERIS_TYPE":0,"CLASSIFICATION_TYPE":"U","NORAD_CAT_ID":48211,"ELEMENT_SET_NO":999,"REV_AT_EPOCH":21348,"BSTAR":0.00036019371,"MEAN_MOTION_DOT":1.46e-6,"MEAN_MOTION_DDOT":0},{"OBJECT_NAME":"ONEWEB-0179","OBJECT_ID":"2021-031C","EPOCH":"2025-09-25T03:45:36.524736","MEAN_MOTION":13.14503739,"ECCENTRICITY":0.00019119,"INCLINATION":87.9071,"RA_OF_ASC_NODE":342.4661,"ARG_OF_PERICENTER":100.0072,"MEAN_ANOMALY":260.1274,"EPHEMERIS_TYPE":0,"CLASSIFICATION_TYPE":"U","NORAD_CAT_ID":48212,"ELEMENT_SET_NO":999,"REV_AT_EPOCH":21351,"BSTAR":-0.00024862039,"MEAN_MOTION_DOT":-7.9e-7,"MEAN_MOTION_DDOT":0},{"OBJECT_NAME":"ONEWEB-0180","OBJECT_ID":"2021-031D","EPOCH":"2025-09-25T06:22:01.904448","MEAN_MOTION":13.14505205,"ECCENTRICITY":0.00020526,"INCLINATION":87.9085,"RA_OF_ASC_NODE":342.4357,"ARG_OF_PERICENTER":107.4271,"MEAN_ANOMALY":252.7084,"EPHEMERIS_TYPE":0,"CLASSIFICATION_TYPE":"U","NORAD_CAT_ID":48213,"ELEMENT_SET_NO":999,"REV_AT_EPOCH":21341,"BSTAR":0.00051860973,"MEAN_MOTION_DOT":2.05e-6,"MEAN_MOTION_DDOT":0}]
