ONEWEB-0151             
1 48066U 21025AA  25268.27912814  .00002137  00000+0  58161-2 0  9996
2 48066  87.9051  12.8481 0001772 110.8263 249.3056 13.13463563218812
ONEWEB-0170             
1 48067U 21025AB  25268.28760315  .00000586  00000+0  15706-2 0  9999
2 48067  87.9052  12.8532 0001277 104.5186 255.6085 13.13471391218770
ONEWEB-0168             
1 48068U 21025AC  25267.81529573  .00000312  00000+0  81836-3 0  9992
2 48068  87.9053  12.9283 0001911 103.7685 256.3657 13.13468846218725
ONEWEB-0173             
1 48069U 21025AD  25268.26388397  .00000013  00000+0 -40516-6 0  9992
2 48069  87.9053  12.8473 0001969 113.1629 246.9707 13.13472053219022
ONEWEB-0171             
1 48070U 21025AE  25268.22495554  .00000116  00000+0  28401-3 0  9993
2 48070  87.9043  12.8899 0001681 104.4721 255.6595 13.13471927218831
ONEWEB-0172             
1 48071U 21025AF  25267.59523152  .00000208  00000+0  53591-3 0  9999
2 48071  87.9054  12.9843 0001737 106.1565 253.9756 13.13468168219644
ONEWEB-0174             
1 48072U 21025AG  25268.26219396 -.00000003  00000+0 -42018-4 0  9995
2 48072  87.9047  12.8634 0001933  99.8993 260.2354 13.13468803219051
ONEWEB-0175             
1 48073U 21025AH  25268.29266793  .00000258  00000+0  67055-3 0  9999
2 48073  87.9049  12.8224 0001482 109.4272 250.7017 13.13471892218710
ONEWEB-0177             
1 48074U 21025AJ  25268.22834019  .00000049  00000+0  98624-4 0  9990
2 48074  87.9054  12.8525 0001916 103.3058 256.8285 13.13468487218897
ONEWEB-0178             
1 48075U 21025AK  25267.79002619 -.00000264  00000+0 -75752-3 0  9992
2 48075  87.9051  12.9854 0001780 110.5286 249.6035 13.13468290218887
ONEWEB-0108             
1 48076U 21025AL  25268.28251488  .00000357  00000+0  94162-3 0  9995
2 48076  87.9050  12.8335 0001761  92.7321 267.4009 13.13471902218872
ONEWEB-0169             
1 48077U 21025AM  25268.23849330 -.00000196  00000+0 -57290-3 0  9994
2 48077  87.9050  12.8651 0001774  93.4330 266.7003 13.13468596217528
ONEWEB-0176             
1 48210U 21031A   25268.28909996  .00000226  00000+0  57395-3 0  9998
2 48210  87.9072 342.4523 0001800 104.4036 255.7293 13.14502075213513
ONEWEB-0184             
1 48211U 21031B   25268.26214311  .00000146  00000+0  36019-3 0  9998
2 48211  87.9083 342.4306 0001559 128.5700 231.5569 13.14502872213480
ONEWEB-0179             
1 48212U 21031C   25268.15667274 -.00000079  00000+0 -24862-3 0  9997
2 48212  87.9071 342.4661 0001911 100.0072 260.1274 13.14503739213519
ONEWEB-0180             
1 48213U 21031D   25268.26529982  .00000205  00000+0  51861-3 0  9991
2 48213  87.9085 342.4357 0002052 107.4271 252.7084 13.14505205213411
